{
    "links": {
        "self": "http://www.neowsapp.com/rest/v1/neo/3843717?api_key=iIulBulltgU6a56xZRHN4H3l9WmuAYTsLGpBGhQ2"
    },
    "id": "3843717",
    "neo_reference_id": "3843717",
    "name": "(2019 QB7)",
    "designation": "2019 QB7",
    "nasa_jpl_url": "http://ssd.jpl.nasa.gov/sbdb.cgi?sstr=3843717",
    "absolute_magnitude_h": 24.5,
    "estimated_diameter": {
        "kilometers": {
            "estimated_diameter_min": 0.0334622374,
            "estimated_diameter_max": 0.0748238376
        },
        "meters": {
            "estimated_diameter_min": 33.4622374455,
            "estimated_diameter_max": 74.8238376074
        },
        "miles": {
            "estimated_diameter_min": 0.0207924639,
            "estimated_diameter_max": 0.0464933628
        },
        "feet": {
            "estimated_diameter_min": 109.7842471007,
            "estimated_diameter_max": 245.4850393757
        }
    },
    "is_potentially_hazardous_asteroid": false,
    "close_approach_data": [
        {
            "close_approach_date": "2019-07-30",
            "close_approach_date_full": "2019-Jul-30 18:35",
            "epoch_date_close_approach": 1564511700000,
            "relative_velocity": {
                "kilometers_per_second": "5.4584323411",
                "kilometers_per_hour": "19650.3564280948",
                "miles_per_hour": "12209.9673038904"
            },
            "miss_distance": {
                "astronomical": "0.1172892417",
                "lunar": "45.6255150213",
                "kilometers": "17546220.732235179",
                "miles": "10902715.9973523102"
            },
            "orbiting_body": "Earth"
        }
    ],
    "orbital_data": {
        "orbit_id": "1",
        "orbit_determination_date": "2019-09-01 15:42:03",
        "first_observation_date": "2019-08-28",
        "last_observation_date": "2019-09-01",
        "data_arc_in_days": 4,
        "observations_used": 12,
        "orbit_uncertainty": "9",
        "minimum_orbit_intersection": ".113333",
        "jupiter_tisserand_invariant": "4.767",
        "epoch_osculation": "2458724.5",
        "eccentricity": ".2071414191659431",
        "semi_major_axis": "1.379975137311502",
        "inclination": "8.66374746162893",
        "ascending_node_longitude": "148.849787384078",
        "orbital_period": "592.1139863675342",
        "perihelion_distance": "1.09412512895508",
        "perihelion_argument": "133.3416544824953",
        "aphelion_distance": "1.665825145667923",
        "perihelion_time": "2458670.661519724010",
        "mean_anomaly": "32.73331376321483",
        "mean_motion": ".607991042752607",
        "equinox": "J2000",
        "orbit_class": {
            "orbit_class_type": "AMO",
            "orbit_class_description": "Near-Earth asteroid orbits similar to that of 1221 Amor",
            "orbit_class_range": "1.017 AU < q (perihelion) < 1.3 AU"
        }
    },
    "is_sentry_object": false
}